{"type":"FeatureCollection","features":[{"type":"Feature","properties":{"Centre__c":"MWS Active Ageing Centre - Fernvale Rivergrove","fillColor":"#2E86DE","fillOpacity":0.22,"strokeColor":"#111111","strokeWidth":2,"strokeOpacity":0.85},"geometry":{"type":"Polygon","coordinates":[[[103.873327,1.399226],[103.873788,1.398243],[103.873911,1.397182],[103.873757,1.395707],[103.873696,1.394954],[103.875018,1.394877],[103.875802,1.394939],[103.875833,1.393525],[103.875602,1.391004],[103.875525,1.390036],[103.875541,1.389206],[103.875909,1.388192],[103.876693,1.388392],[103.877462,1.388576],[103.878338,1.388669],[103.879076,1.388592],[103.880075,1.388392],[103.880782,1.388208],[103.881643,1.38979],[103.881628,1.39188],[103.882028,1.393556],[103.883841,1.394723],[103.884733,1.395845],[103.885394,1.39729],[103.885671,1.398458],[103.882535,1.398765],[103.882412,1.39812],[103.879629,1.398412],[103.87634,1.398704],[103.874511,1.399088],[103.873327,1.399226]]]}},{"type":"Feature","properties":{"Centre__c":"MWS Active Ageing Centre - Kebun Baru","fillColor":"#27AE60","fillOpacity":0.22,"strokeColor":"#111111","strokeWidth":2,"strokeOpacity":0.85},"geometry":{"type":"Polygon","coordinates":[[[103.837306,1.383992],[103.83659,1.383137],[103.835854,1.382182],[103.835117,1.381485],[103.834282,1.380928],[103.835117,1.379695],[103.835953,1.378581],[103.836351,1.378004],[103.835893,1.377567],[103.835277,1.377049],[103.834381,1.376353],[103.833565,1.375597],[103.833227,1.37502],[103.834003,1.37514],[103.834719,1.37516],[103.835078,1.374901],[103.835535,1.374344],[103.835874,1.373986],[103.836411,1.373727],[103.837207,1.373449],[103.837963,1.37321],[103.838838,1.372753],[103.839216,1.372474],[103.839415,1.372176],[103.839714,1.372156],[103.840371,1.372235],[103.840928,1.372275],[103.841863,1.372156],[103.842798,1.372037],[103.843594,1.371957],[103.84447,1.371798],[103.845365,1.371678],[103.845206,1.373071],[103.845086,1.374404],[103.844887,1.376035],[103.844808,1.377209],[103.84431,1.377388],[103.843495,1.377288],[103.842281,1.377228],[103.841166,1.377109],[103.839774,1.377109],[103.839535,1.377129],[103.839754,1.378024],[103.839813,1.378999],[103.839774,1.379934],[103.839515,1.380809],[103.838958,1.381883],[103.838301,1.382818],[103.837704,1.383574],[103.837306,1.383992]]]}},{"type":"Feature","properties":{"Centre__c":"MWS Active Ageing Centre - Teck Ghee Vista","fillColor":"#F39C12","fillOpacity":0.22,"strokeColor":"#111111","strokeWidth":2,"strokeOpacity":0.85},"geometry":{"type":"Polygon","coordinates":[[[103.843444,1.365219],[103.843382,1.364674],[103.84332,1.364179],[103.843667,1.364203],[103.844361,1.364241],[103.845005,1.364166],[103.845909,1.364042],[103.846392,1.363931],[103.846467,1.364439],[103.846591,1.36481],[103.846628,1.365095],[103.846615,1.365467],[103.846752,1.365925],[103.846293,1.366259],[103.846095,1.366495],[103.84638,1.366854],[103.846491,1.367064],[103.846504,1.367535],[103.846355,1.367683],[103.846355,1.368179],[103.846355,1.368761],[103.846021,1.368835],[103.845761,1.368885],[103.8455,1.368971],[103.845191,1.36829],[103.844906,1.367622],[103.844497,1.367077],[103.844113,1.366569],[103.843741,1.366061],[103.843469,1.365665],[103.843444,1.365219]]]}},{"type":"Feature","properties":{"Centre__c":"MWS Wesley Active Ageing Centre - Jalan Berseh","fillColor":"#E74C3C","fillOpacity":0.22,"strokeColor":"#111111","strokeWidth":2,"strokeOpacity":0.85},"geometry":{"type":"Polygon","coordinates":[[[103.854255,1.313549],[103.853469,1.312679],[103.852908,1.311445],[103.852487,1.310603],[103.852038,1.309957],[103.851477,1.309228],[103.850972,1.308582],[103.850466,1.307881],[103.849905,1.30718],[103.849428,1.306254],[103.848586,1.306899],[103.847828,1.307657],[103.847239,1.308218],[103.846733,1.307544],[103.846481,1.306787],[103.846116,1.305412],[103.845499,1.304121],[103.845667,1.30342],[103.84519,1.302409],[103.8446,1.301203],[103.844011,1.300277],[103.843534,1.299912],[103.842018,1.300249],[103.841569,1.2998],[103.841289,1.299014],[103.841878,1.298678],[103.842439,1.298201],[103.842748,1.297555],[103.843029,1.29705],[103.843001,1.296489],[103.842804,1.295844],[103.842383,1.295338],[103.841878,1.294833],[103.841934,1.294216],[103.842131,1.293683],[103.842916,1.293234],[103.844039,1.292561],[103.844909,1.292027],[103.84592,1.29127],[103.847098,1.290428],[103.848025,1.290204],[103.84853,1.290372],[103.849175,1.291747],[103.850242,1.293935],[103.851449,1.295423],[103.852571,1.296657],[103.853526,1.29792],[103.854311,1.298818],[103.855238,1.299884],[103.855967,1.300193],[103.856192,1.30095],[103.856894,1.301792],[103.857623,1.302634],[103.858521,1.303672],[103.859476,1.304458],[103.860149,1.304935],[103.860234,1.305159],[103.859616,1.305861],[103.858914,1.306731],[103.857932,1.307572],[103.857287,1.308218],[103.857764,1.308947],[103.857932,1.309396],[103.857202,1.310126],[103.856388,1.310939],[103.855631,1.311753],[103.854901,1.312679],[103.854255,1.313549]]]}},{"type":"Feature","properties":{"Centre__c":"MWS Active Ageing Centre - GreenTops@Sims Place","fillColor":"#8E44AD","fillOpacity":0.22,"strokeColor":"#111111","strokeWidth":2,"strokeOpacity":0.85},"geometry":{"type":"Polygon","coordinates":[[[103.880018,1.327705],[103.879473,1.326953],[103.879032,1.32646],[103.87859,1.326278],[103.878279,1.325837],[103.877838,1.325474],[103.877656,1.325163],[103.87776,1.324748],[103.877501,1.324358],[103.877137,1.324021],[103.876255,1.323658],[103.875528,1.323373],[103.875035,1.323139],[103.874439,1.32288],[103.873946,1.322517],[103.874335,1.321764],[103.874854,1.320986],[103.875554,1.320363],[103.876177,1.32],[103.875814,1.319507],[103.875243,1.318729],[103.875061,1.317743],[103.87488,1.316731],[103.874724,1.315668],[103.874724,1.314656],[103.874802,1.313696],[103.875035,1.312684],[103.875269,1.311802],[103.875606,1.310531],[103.875762,1.309494],[103.875944,1.308637],[103.876203,1.308196],[103.876774,1.307937],[103.877423,1.308067],[103.87763,1.308534],[103.877942,1.308949],[103.878435,1.309364],[103.878824,1.309623],[103.879525,1.309883],[103.880303,1.310012],[103.881211,1.31022],[103.881808,1.310402],[103.882223,1.310453],[103.882223,1.31131],[103.882197,1.312425],[103.882197,1.313177],[103.882068,1.314059],[103.881834,1.314993],[103.881756,1.315668],[103.881834,1.316368],[103.881886,1.31751],[103.881834,1.318495],[103.88186,1.319533],[103.88173,1.320701],[103.881523,1.322075],[103.881341,1.323321],[103.880952,1.325033],[103.880537,1.326589],[103.880018,1.327705]]]}},{"type":"Feature","properties":{"Centre__c":"MWS Charis ACE Active Ageing Centre - Geylang East","fillColor":"#008C95","fillOpacity":0.22,"strokeColor":"#111111","strokeWidth":2,"strokeOpacity":0.85},"geometry":{"type":"Polygon","coordinates":[[[103.891553,1.319915],[103.889977,1.319584],[103.888415,1.319293],[103.887226,1.319031],[103.886355,1.318837],[103.885484,1.318699],[103.884475,1.318588],[103.883341,1.318588],[103.88236,1.318492],[103.882152,1.318533],[103.881987,1.318105],[103.881945,1.317358],[103.881917,1.31664],[103.881862,1.315949],[103.881834,1.315465],[103.881917,1.314981],[103.882401,1.315064],[103.88294,1.315133],[103.883438,1.31523],[103.884309,1.315451],[103.885221,1.315548],[103.886369,1.315783],[103.887184,1.315976],[103.888,1.316115],[103.888885,1.316253],[103.88959,1.316363],[103.890419,1.316529],[103.891041,1.31664],[103.89194,1.316806],[103.892272,1.316971],[103.892092,1.317815],[103.892009,1.318395],[103.891843,1.31921],[103.891746,1.319653],[103.891553,1.319915]]]}},{"type":"Feature","properties":{"Centre__c":"MWS Active Ageing Centre - Golden Lily@Pasir Ris","fillColor":"#D354A5","fillOpacity":0.22,"strokeColor":"#111111","strokeWidth":2,"strokeOpacity":0.85},"geometry":{"type":"Polygon","coordinates":[[[103.966348,1.378311],[103.965965,1.37721],[103.96539,1.375725],[103.964623,1.374001],[103.964192,1.372684],[103.964049,1.371583],[103.963713,1.370984],[103.963761,1.370098],[103.962947,1.369835],[103.962324,1.369835],[103.961965,1.36914],[103.961438,1.369188],[103.960672,1.369236],[103.9606,1.370098],[103.960552,1.371798],[103.960743,1.372756],[103.960767,1.373235],[103.960216,1.37345],[103.959402,1.37357],[103.958971,1.373522],[103.958779,1.373043],[103.958731,1.372588],[103.9583,1.372325],[103.957534,1.372062],[103.956839,1.371942],[103.956312,1.373187],[103.956193,1.374121],[103.956169,1.374887],[103.956169,1.375366],[103.955258,1.375366],[103.952935,1.375031],[103.952791,1.374336],[103.953199,1.373259],[103.953702,1.372134],[103.953941,1.371032],[103.954085,1.37005],[103.954157,1.369212],[103.954756,1.369188],[103.955498,1.369188],[103.956576,1.369021],[103.95763,1.368686],[103.958228,1.368494],[103.959019,1.368111],[103.959402,1.367847],[103.960288,1.367153],[103.960839,1.36677],[103.961462,1.366243],[103.961917,1.36574],[103.962444,1.36519],[103.963043,1.364519],[103.96345,1.364088],[103.963881,1.363681],[103.964528,1.363633],[103.965055,1.364208],[103.965606,1.364735],[103.966204,1.365381],[103.96654,1.36586],[103.96733,1.366363],[103.968001,1.367201],[103.969031,1.368159],[103.969893,1.369045],[103.970755,1.369883],[103.97145,1.370601],[103.97236,1.371319],[103.972839,1.372014],[103.973366,1.372565],[103.972192,1.373786],[103.971498,1.373355],[103.970324,1.374456],[103.96927,1.375534],[103.968096,1.376563],[103.966971,1.377713],[103.966348,1.378311]]]}}]}