{"type":"FeatureCollection","name":"Subzones Containing MWS Active Ageing Centres","features":[{"type":"Feature","geometry":{"type":"Polygon","coordinates":[[[103.85463009136554,1.303310141146188],[103.85492016271364,1.303414893939064],[103.85510542287504,1.3034859491740312],[103.85540353813137,1.303600295340891],[103.855454857872,1.3036199774812507],[103.85551561687329,1.3036432797088053],[103.8556459451526,1.3036930032347331],[103.85575574442781,1.303751488423106],[103.85584007531368,1.303810171891658],[103.85590460656887,1.303850154178261],[103.85591123609532,1.3038559691834999],[103.85591770386743,1.3038599854087733],[103.85596969328046,1.3039072388990434],[103.85597174647489,1.303909038566233],[103.85597519961705,1.3039122426991252],[103.85608085157423,1.304010271256962],[103.85621945081553,1.3041387720774769],[103.85633820295263,1.304264607005434],[103.85664215984039,1.3045780985953868],[103.85694154496925,1.3048885081145565],[103.85730760557105,1.3052552091369014],[103.85736845394169,1.3053161645409095],[103.85752749182295,1.305461022332419],[103.85764867536349,1.3055669159297147],[103.8577103007002,1.3055974810466773],[103.857784512912,1.3056309743717747],[103.85786666904218,1.3056503314923258],[103.85796685992426,1.3056712394178054],[103.85803876081965,1.3056781923678393],[103.85826406251454,1.305681748804676],[103.8583916175965,1.3056871945169801],[103.85854821285503,1.3056964047999546],[103.85861220119247,1.3057078100005572],[103.85867208856457,1.3057194548977422],[103.85872785522038,1.3057330442194315],[103.85877118056507,1.3057436013318138],[103.85889374101069,1.3057869173398355],[103.85905911382015,1.3058489152665247],[103.85929814622114,1.3059395138544392],[103.85945999233297,1.3060092685265012],[103.85920612768204,1.3062777345332686],[103.85883736444613,1.3066850714072356],[103.85875972543103,1.3067708340047508],[103.85871170393686,1.3068175675374833],[103.85810945140285,1.307339246397985],[103.85807696918503,1.307367381505056],[103.85777880230782,1.3076409728428782],[103.85737923312297,1.3079846000294788],[103.85736666703599,1.3079954805618907],[103.85714401325899,1.3081936199523012],[103.85708409000867,1.3080987662358217],[103.85698003303648,1.3079340507660078],[103.85663119110927,1.307389180664614],[103.85637276510117,1.3069799254906476],[103.85552571199194,1.3056887083943876],[103.85490163385715,1.3046891602525954],[103.85458477085199,1.3042098704710563],[103.85413636102376,1.3035397345609523],[103.85393257380835,1.3032533700626976],[103.85411714850227,1.3031249035283636],[103.85463009136554,1.303310141146188]]]},"properties":{"OBJECTID":718,"SUBZONE_NO":3,"SUBZONE_N":"SUNGEI ROAD","SUBZONE_C":"RCSZ03","CA_IND":"Y","PLN_AREA_N":"ROCHOR","PLN_AREA_C":"RC","REGION_N":"CENTRAL REGION","REGION_C":"CR","INC_CRC":"31DE89B5FC57F46A","FMEL_UPD_D":"20191223152313","SHAPE.AREA":116329.996565155,"SHAPE.LEN":1727.9635025628,"fill":"#C6D7FF","fill-opacity":0.55,"stroke":"#666666","stroke-width":0.8,"stroke-opacity":1.0}},{"type":"Feature","geometry":{"type":"Polygon","coordinates":[[[103.8377324676848,1.3771125139615266],[103.83734618750557,1.3772402208245786],[103.83704177814454,1.3774068929349548],[103.83671553712995,1.3776619159960983],[103.83655932127638,1.3778208518962012],[103.83642258829025,1.377994942191785],[103.83596221010166,1.3776382723496001],[103.8354205102189,1.3772094034756632],[103.83477629858169,1.3766986036628248],[103.83422887521142,1.37626192080893],[103.83398736845267,1.3760684493418351],[103.83378079913103,1.3758547101364678],[103.83359943660386,1.3756500986583091],[103.83346212212871,1.375430612180843],[103.83324700929026,1.3750025584976817],[103.83317733220741,1.3748504191053237],[103.83310597660373,1.3746643054587555],[103.83306778641044,1.3744620082154224],[103.83303964675773,1.3742091371145795],[103.83303361647906,1.3739042750190409],[103.833155046006,1.3723246509139213],[103.83315504601869,1.3721531400390377],[103.83314025105716,1.3719815920838292],[103.83310322005943,1.3717876837195833],[103.83300558674884,1.3715460258175665],[103.83302447201703,1.3715349220355473],[103.83352033583286,1.3714138566115108],[103.83409613914714,1.3712441724362046],[103.83448247423256,1.371082563289034],[103.83473500404577,1.3710142411455701],[103.83495782621384,1.370972173595117],[103.83536907417317,1.3709313276661823],[103.8357586549226,1.3709310469480482],[103.83596544932094,1.3709462364306975],[103.83617006649817,1.3709727657216304],[103.83657740938179,1.3710312441083752],[103.83658721795705,1.3708655482808145],[103.83660567981278,1.370733814937257],[103.83663690224824,1.3705874571009466],[103.83667667009021,1.370443959756299],[103.83672514418097,1.3703030063751709],[103.83678247907368,1.3701648782141045],[103.83684929478342,1.3700315196547506],[103.83692210935104,1.3699044491292462],[103.8372515612331,1.3693726760788938],[103.83741969199393,1.3694855440770102],[103.8375239756652,1.3695448557232324],[103.83763606880837,1.3695999674830113],[103.83774991685763,1.3696513668188153],[103.83786381791512,1.3696962321170918],[103.83810329064676,1.36977200742856],[103.83822338553054,1.3698013990242277],[103.83834472852243,1.3698264469495407],[103.83846733399359,1.369844638880308],[103.83859152004247,1.369858521505447],[103.83871273900054,1.3698666460434126],[103.83890943787289,1.3698756304500914],[103.83908214668658,1.3698728265101299],[103.83955222016881,1.3698223608976232],[103.8405794186585,1.3696849823463102],[103.84270668936698,1.3694216936826054],[103.84417102461506,1.3692430402560052],[103.84514021638435,1.3691250088774196],[103.84542024659292,1.3690908116514244],[103.84545580527579,1.3693628976011147],[103.84547521693041,1.3695103152087944],[103.84549253863193,1.369681333116704],[103.8455046674976,1.3698522787016312],[103.84551300734485,1.3700729652445611],[103.8455149884081,1.3701945244526503],[103.84551254965032,1.3703650106942284],[103.84550763712654,1.3705353215015461],[103.84549861723708,1.3707059135868949],[103.84548464711975,1.3708764007910166],[103.84546683470684,1.3710458986399094],[103.84540597251937,1.3715459490775594],[103.84538745822968,1.3716989133412971],[103.84535365807723,1.3719783132305807],[103.84514732835952,1.3736643178140133],[103.84510217333843,1.3740331638968797],[103.84508349635665,1.3741833716540268],[103.84507098692883,1.374283975906473],[103.84500452394978,1.3748184762960045],[103.84492377778938,1.3754678382430323],[103.84487001468224,1.3759002177539306],[103.84479795192607,1.3764797527834143],[103.8446987976075,1.3773436688826675],[103.84397818421893,1.3773541999349428],[103.84332290865757,1.3773370687050297],[103.84194805705907,1.3771905734317123],[103.84178092685626,1.3771625251773394],[103.8409705430993,1.3770927227674619],[103.8395645565845,1.3770860146918948],[103.83812396153354,1.3770800130648395],[103.8377324676848,1.3771125139615266]]]},"properties":{"OBJECTID":789,"SUBZONE_NO":6,"SUBZONE_N":"KEBUN BAHRU","SUBZONE_C":"AMSZ06","CA_IND":"N","PLN_AREA_N":"ANG MO KIO","PLN_AREA_C":"AM","REGION_N":"NORTH-EAST REGION","REGION_C":"NER","INC_CRC":"60BFB1E98CF343F9","FMEL_UPD_D":"20191223152313","SHAPE.AREA":1046417.00003483,"SHAPE.LEN":4288.19423134654,"fill":"#B9E4CC","fill-opacity":0.55,"stroke":"#666666","stroke-width":0.8,"stroke-opacity":1.0}},{"type":"Feature","geometry":{"type":"Polygon","coordinates":[[[103.96660203060983,1.365761433113025],[103.96662452477888,1.3657842091155479],[103.9660095997643,1.366372708009767],[103.96576364651776,1.3667285998232248],[103.9638963763276,1.3698236869927294],[103.96379293777531,1.3700914317237722],[103.9637486174264,1.3704186711850164],[103.96373385396059,1.3707012860001972],[103.96384359197319,1.372913487591313],[103.96385680788077,1.3732071304621687],[103.9638132650731,1.373506526383807],[103.96371429777824,1.3738093510717857],[103.96362522366022,1.3739951037571183],[103.96349757415067,1.374201453589383],[103.96333317445456,1.374399291766667],[103.96312391568847,1.3745852626385053],[103.96289229688354,1.3747380274501613],[103.9624996458248,1.3749167770019013],[103.95928671821328,1.3754701896090618],[103.95874554334392,1.3755193929756915],[103.95816136839848,1.3755367685567104],[103.95758344054458,1.375541639956847],[103.95681870569759,1.3755196360734467],[103.95642291287994,1.3754940089388321],[103.95614656611029,1.3754680219493554],[103.95594968723434,1.3754444346145545],[103.952740851764,1.3750469882350305],[103.95275204650402,1.3749093835255395],[103.95276989102803,1.3747972019134833],[103.95280743593749,1.3745611524263621],[103.95284060908439,1.3743931121063548],[103.95291341938673,1.374069211995367],[103.95295798111371,1.3739035106858795],[103.95303466743508,1.373662145191493],[103.95310864500145,1.3734658405866966],[103.95317674008456,1.3732968769573377],[103.95325966158738,1.373110480995445],[103.9537134821991,1.3721368162089387],[103.9538071425973,1.3719358685008594],[103.95394776460036,1.3716033834400814],[103.95398139798124,1.371494575197782],[103.9540235773428,1.371325843478379],[103.95405655255766,1.371155094593379],[103.95408023559062,1.3709827807285933],[103.95409442069877,1.3708094463206422],[103.95409917994479,1.3706385876303617],[103.95409931882438,1.369410334342774],[103.95408975804185,1.36912268703278],[103.95409227503781,1.3689093035311295],[103.95409800605903,1.3685311739991322],[103.95409235174837,1.3682332547420732],[103.95408099562631,1.3679811733750846],[103.95406393311997,1.3678092920478835],[103.95393876436292,1.3670874273571203],[103.95387615840674,1.3668697215763876],[103.95380421879645,1.3666830729694717],[103.95370177653838,1.366408169179897],[103.95359564430427,1.3661777140723195],[103.95338662780381,1.3657989496158118],[103.95322832351582,1.3655598640643165],[103.95322742308294,1.3655584722958913],[103.95355997459733,1.3654686994307836],[103.95374779140343,1.3654181731970112],[103.95390897226936,1.3653732996536376],[103.95406825435305,1.3653263416407402],[103.95412637906828,1.365308958668119],[103.95428534559547,1.3652589990789863],[103.95444761241073,1.3652062475461653],[103.95457270782111,1.3651636014246886],[103.95475803302098,1.3650985557054056],[103.95490945304917,1.365042485684602],[103.9550592591766,1.3649850727590487],[103.95523229898208,1.3649167773530078],[103.95538459566939,1.3648544174197959],[103.95552352004478,1.3647952740733977],[103.95569013657924,1.364721256160532],[103.95586156113639,1.3646433863116658],[103.95600838330247,1.364572761655664],[103.95613572408575,1.3645108623746725],[103.95627808477055,1.3644386118893506],[103.95642234396776,1.3643634302605494],[103.95643178585044,1.3643584838174052],[103.95669376752943,1.3642212622872163],[103.95695202771508,1.3640742539153978],[103.95714675809562,1.3639574545058126],[103.95734766570715,1.363833022849093],[103.9575092970091,1.3637267157305617],[103.95778514035479,1.363547242475311],[103.95799882337596,1.3633989313259922],[103.95829439000626,1.3631815479370732],[103.95854404915977,1.3629873122592668],[103.9588166265637,1.362765621635404],[103.95906298165937,1.3625550976171208],[103.95931425287982,1.3623295247323717],[103.95954572822959,1.3621129603154505],[103.95967934703276,1.3619815720606758],[103.96004752857657,1.3615997074078803],[103.9603718359057,1.361237522145375],[103.96063682587972,1.360921014806396],[103.96088587974837,1.3606046511809389],[103.96115023544442,1.360241516729204],[103.96660203060983,1.365761433113025]]]},"properties":{"OBJECTID":850,"SUBZONE_NO":5,"SUBZONE_N":"PASIR RIS DRIVE","SUBZONE_C":"PRSZ05","CA_IND":"N","PLN_AREA_N":"PASIR RIS","PLN_AREA_C":"PR","REGION_N":"EAST REGION","REGION_C":"ER","INC_CRC":"833173AFA73BCF94","FMEL_UPD_D":"20191223152313","SHAPE.AREA":1639836.6411068,"SHAPE.LEN":5314.6232346855,"fill":"#FCD9B0","fill-opacity":0.55,"stroke":"#666666","stroke-width":0.8,"stroke-opacity":1.0}},{"type":"Feature","geometry":{"type":"Polygon","coordinates":[[[103.88104032446599,1.3886989727629755],[103.88131539029128,1.3892180177327775],[103.88152169189405,1.389702460403964],[103.8816248469459,1.3901523024090217],[103.88164204748294,1.3906367489460496],[103.88162486698947,1.3911384984772335],[103.88157330243602,1.391553739986384],[103.88150223120566,1.391953093127028],[103.88147032989265,1.3921311024216867],[103.88145609251355,1.3923820727109246],[103.88145150096072,1.3926569876416521],[103.88146325065573,1.3927840052947744],[103.88149205875,1.3929444225604102],[103.8816610705645,1.393294245982741],[103.88182432476836,1.3934894531469597],[103.88202185367443,1.3936494924959997],[103.8823604164388,1.3938990301420309],[103.88239164514417,1.3939177172605393],[103.88253664436078,1.3940044417974022],[103.88290833188293,1.3942267500787482],[103.88472461170555,1.395206920894227],[103.88483063909769,1.395307869970944],[103.8849817062227,1.3955012015150472],[103.88507426427331,1.395700114268271],[103.88520685364541,1.3961256669103719],[103.88538193685794,1.3966710305077707],[103.88569078901125,1.3974961333910316],[103.88574307336404,1.397759754234538],[103.8857563653439,1.3978082640044833],[103.88603290482318,1.398633371167355],[103.88615619610579,1.399062134433283],[103.88628499476273,1.399367260197966],[103.88645223843801,1.3997959745119786],[103.8865966541938,1.400086625557981],[103.88664479042541,1.4002513262627065],[103.88679881533831,1.4009636474793468],[103.88681836076758,1.4011784596242776],[103.88682090259044,1.4012063935503243],[103.88680747870157,1.401207473668898],[103.88601192882446,1.4012714809612936],[103.88223691734032,1.4014051297043373],[103.88129280051459,1.4013978954461825],[103.8782332677719,1.401374451152774],[103.87668987514456,1.4012822036518817],[103.8722203691918,1.401087411186889],[103.8721136328577,1.4010827591108346],[103.86892029110498,1.401031940545934],[103.86904513940043,1.39605270820302],[103.86915191770602,1.3925475828258467],[103.86917327193426,1.3917411892102023],[103.86914666588872,1.3912620738778358],[103.86901037889227,1.389790080732556],[103.86891043976384,1.388994656161034],[103.86882284999601,1.3882087742403109],[103.86886511529497,1.3881972094994999],[103.87085998567557,1.3877182915489983],[103.8718925215627,1.3875009778874137],[103.87276491311226,1.3873500657729099],[103.87298796298754,1.3873363410121806],[103.87310966260192,1.387335101786749],[103.87332165837648,1.3873329421873912],[103.87412855341329,1.3874447357426456],[103.87475487492249,1.3876024241538827],[103.87529105563304,1.3878031056576186],[103.8759439884387,1.3880990261971398],[103.87630500151771,1.3882428342827597],[103.87697599126676,1.3884786637383275],[103.87749892124417,1.3885939956303859],[103.87773290507818,1.3886282575668984],[103.87793227579579,1.3886662289334846],[103.87809005450684,1.3886792279719906],[103.87842909333982,1.388694058481374],[103.87880989837322,1.388679214146608],[103.87899498340595,1.3886639132415906],[103.87899629173059,1.3886637214910276],[103.87951496425414,1.3885877040919397],[103.87983360637276,1.3885155946857703],[103.88007780049125,1.388444865874242],[103.88031823892649,1.388348067920834],[103.88059440785138,1.3882258647404846],[103.88072718109349,1.3881562034418806],[103.88104032446599,1.3886989727629755]]]},"properties":{"OBJECTID":867,"SUBZONE_NO":6,"SUBZONE_N":"FERNVALE","SUBZONE_C":"SESZ06","CA_IND":"N","PLN_AREA_N":"SENGKANG","PLN_AREA_C":"SE","REGION_N":"NORTH-EAST REGION","REGION_C":"NER","INC_CRC":"F10D1C953E9D8403","FMEL_UPD_D":"20191223152313","SHAPE.AREA":2391627.04450326,"SHAPE.LEN":6491.77131403224,"fill":"#B9E4CC","fill-opacity":0.55,"stroke":"#666666","stroke-width":0.8,"stroke-opacity":1.0}},{"type":"Feature","geometry":{"type":"Polygon","coordinates":[[[103.89126738531158,1.3213177098254825],[103.89117426631375,1.3218122228660327],[103.89096596504513,1.32291322149315],[103.89096101911049,1.3229391461122237],[103.89044183826911,1.3227923021090524],[103.88918894874291,1.3225219747436765],[103.88753027289822,1.3223235806695957],[103.88698484664162,1.3223071765725591],[103.88644151397982,1.3222891254622477],[103.88573162187151,1.32226391792345],[103.88528494248293,1.3222246806742899],[103.88511797196374,1.3221965638821087],[103.88428020711235,1.3219630699448583],[103.88353808850945,1.3216694154598025],[103.8825390375172,1.3212583730604806],[103.88166813590266,1.3208604708651281],[103.88142295780413,1.3225388492279702],[103.87714882428939,1.3208877439925013],[103.87624838564804,1.320551149949248],[103.87564696644954,1.3202135864136981],[103.87566391477225,1.3202038587798177],[103.87572656482847,1.3201695596855323],[103.87578988702137,1.320136533923251],[103.87585385529327,1.32010479415445],[103.87591844448501,1.3200743557537307],[103.87552382502226,1.319611003276886],[103.87548843480245,1.3195659186014914],[103.87545414888959,1.3195199774736215],[103.87542098795082,1.3194732079282705],[103.87538897175469,1.3194256370960504],[103.87535811827269,1.3193772939163972],[103.8753284472734,1.319328206424302],[103.87529997582978,1.3192784053679067],[103.87527272101471,1.3192279187822464],[103.87524669990115,1.3191767774154959],[103.87522192596786,1.3191250120158382],[103.87519841628774,1.3190726533314117],[103.875176183441,1.3190197321104293],[103.87515524090637,1.3189662809098304],[103.875135601264,1.3189123304778088],[103.87511727619558,1.3188579142756933],[103.8751002773827,1.3188030630517247],[103.87508461291284,1.3187478111716175],[103.87507029536614,1.318692190287957],[103.87505733013438,1.3186362338621544],[103.87504572530507,1.3185799762599546],[103.8750354916612,1.3185234500382945],[103.87502663010186,1.318466689563053],[103.87490325369816,1.3178217622317034],[103.87483266251303,1.3174349821208504],[103.87475535747517,1.3168362769723885],[103.87474464050348,1.3167844543558611],[103.87473515274573,1.316732391157771],[103.87472689779644,1.3166801145089957],[103.87471988374301,1.3166276551578204],[103.87471411058588,1.3165750420439046],[103.87470958371674,1.3165223059155762],[103.8747063058317,1.316469476616808],[103.87470427782966,1.3164165839916369],[103.87470350150818,1.3163636569797013],[103.87470397686766,1.3163107254250148],[103.87470570390855,1.3162578227890747],[103.87470868173267,1.3162049752984701],[103.87471290854334,1.3161522137016026],[103.87488893900877,1.3140831949055702],[103.87488846633015,1.3140806871108288],[103.87501593232604,1.3131841984289836],[103.87528319691205,1.3117842368277457],[103.87538074726322,1.311370447736777],[103.8756317077306,1.3104232085120415],[103.8760024869105,1.3087964250246187],[103.87600420929908,1.3087888690298402],[103.87600607557172,1.3087881997681754],[103.87628872376257,1.3086867821926549],[103.87659203031532,1.3085779511516757],[103.87678966198735,1.3085070392084437],[103.8772231816257,1.3083514872544522],[103.87734976643834,1.3083060678389575],[103.87745742795082,1.3082674378162158],[103.87750410810825,1.3082506872552937],[103.87822353630419,1.3079313731580373],[103.87901741262095,1.3076153801315216],[103.87921021440083,1.3075416663682045],[103.88005624470387,1.3072182002003554],[103.88011865106549,1.3071943174791179],[103.88081637255992,1.3069310817952196],[103.88096005243374,1.3068561696468106],[103.881083868986,1.306779639058129],[103.88319497629988,1.3051220642107182],[103.88347046845125,1.3048747937107612],[103.88361955049216,1.3047247412851624],[103.88369986365194,1.304643904863746],[103.8837066268694,1.3046368353108564],[103.88375347070784,1.304587872981452],[103.88379985719394,1.3045393881648792],[103.88380682831072,1.3045491651078875],[103.88389919516418,1.3046787161572722],[103.88396409988319,1.3047697490700079],[103.88407534532959,1.3049051337844113],[103.8841667985979,1.305000365116091],[103.88425476416835,1.3050734233086272],[103.88434906896673,1.305145365382753],[103.8844576390109,1.30521315884178],[103.88459204335598,1.305290045150112],[103.88474023658732,1.3053562424843956],[103.8848814559106,1.305407924000506],[103.88504866839811,1.305459765043039],[103.88529826966885,1.3055184712007775],[103.88532033987698,1.3055236626976177],[103.88605216814095,1.3056436094895971],[103.88742208298251,1.3058794501877238],[103.88778873085666,1.3059392993847598],[103.88806225110258,1.3059777180389542],[103.88855838801365,1.3060531473828265],[103.88922930224518,1.3061722679879442],[103.88933895960598,1.3061953096385088],[103.88946347908487,1.3062252232146396],[103.88954464092159,1.30625214974105],[103.88961499513472,1.3062833803781602],[103.88968370428799,1.306322585734876],[103.88977444452472,1.306384656539049],[103.88985221514092,1.3064467475293484],[103.88991117890107,1.3064966065115822],[103.88996642918818,1.3065562426591095],[103.89002118728865,1.3066254460864857],[103.89005743610372,1.306689302426988],[103.89009148229687,1.3067804850888454],[103.89011119119395,1.306867988217879],[103.890120172188,1.3069487477461335],[103.89011964985137,1.3070162549359725],[103.89011271463774,1.3070861434629184],[103.89010486612747,1.3071394459692443],[103.89008085156024,1.307259638340289],[103.88996049132595,1.3077077101780683],[103.8899059226039,1.3079108560565835],[103.88981827929834,1.3082371291699788],[103.88978642762974,1.3083596558799861],[103.88972460458736,1.3085887318522003],[103.88918490829474,1.3106258408701996],[103.88890367338043,1.311845512644139],[103.88997227821613,1.3120586218697479],[103.8901059730027,1.3120852903313822],[103.89093899538963,1.3122514471964648],[103.89116158106033,1.3123223487073752],[103.8912046007028,1.3123534108094173],[103.89135851045532,1.3124703930670827],[103.89172429937179,1.3131852744822021],[103.89187382093569,1.3134674986218537],[103.89203228162633,1.3139945321260658],[103.89209512253372,1.3145305780617829],[103.89211558928815,1.314705126201749],[103.89217186275314,1.3150884206489961],[103.89221378047188,1.3153724117217396],[103.89229258794312,1.315799579952702],[103.89233162118848,1.3159239634682218],[103.89234684221046,1.3162884462978879],[103.89230384060731,1.3166845145280748],[103.89225940905548,1.3168746436885816],[103.89216047393087,1.3173635326652877],[103.89192368286322,1.318419242399577],[103.89172443983597,1.319224484849021],[103.89156328010625,1.31999535331175],[103.89153295645893,1.3201403000919856],[103.89126738531158,1.3213177098254825]]]},"properties":{"OBJECTID":912,"SUBZONE_NO":4,"SUBZONE_N":"ALJUNIED","SUBZONE_C":"GLSZ04","CA_IND":"N","PLN_AREA_N":"GEYLANG","PLN_AREA_C":"GL","REGION_N":"CENTRAL REGION","REGION_C":"CR","INC_CRC":"BFA411234F9CD324","FMEL_UPD_D":"20191223152313","SHAPE.AREA":2961466.15045638,"SHAPE.LEN":7105.13902756705,"fill":"#C6D7FF","fill-opacity":0.55,"stroke":"#666666","stroke-width":0.8,"stroke-opacity":1.0}},{"type":"Feature","geometry":{"type":"Polygon","coordinates":[[[103.8481438600067,1.3687866685243988],[103.8479519309571,1.368803026041542],[103.84776079177705,1.3688242924276912],[103.84678573880657,1.3689265971042661],[103.84542024659292,1.3690908116514244],[103.84538439048018,1.368816429521115],[103.84535353631487,1.3686423033793154],[103.84531825955716,1.3685011729897383],[103.84527934991392,1.3683656957987473],[103.84523698347643,1.3682300413687893],[103.84518805210011,1.3680957290471187],[103.84513090866609,1.3679542098859359],[103.84507618698368,1.367833217067374],[103.84501700661268,1.3677138837776714],[103.8449536146626,1.367596705606972],[103.84489220682146,1.367492350406006],[103.84469325582634,1.3671895304060184],[103.8443105015057,1.3666586775928617],[103.84386705853761,1.366043711868257],[103.84373434357356,1.365851923912546],[103.84358028743662,1.365616436253081],[103.84342580782251,1.3653134748682008],[103.84331708542038,1.3650747728875732],[103.84325516719788,1.36493880016271],[103.84298448903135,1.3643446764222265],[103.84296663155297,1.3642867664296248],[103.84326718098859,1.3642645124115038],[103.84326720704708,1.3642645115070327],[103.84349311424326,1.364250720810737],[103.84370191810234,1.3642402102967313],[103.84390970029686,1.3642318801913706],[103.84412422445621,1.3642255043688292],[103.84434875238435,1.3642212501196653],[103.84455208481796,1.3642028544042126],[103.84479382203874,1.3641809848244215],[103.84505430697438,1.3641574185409429],[103.8453099558127,1.3641342890613324],[103.84554223020154,1.3641132749819962],[103.84578324847887,1.364077760257281],[103.84598984712093,1.3640473173658068],[103.84617709953046,1.3640066335390548],[103.8465466253701,1.363926355628228],[103.84761651520054,1.3635855162763268],[103.84789142862577,1.3634585644797592],[103.84816003316504,1.3633297279956684],[103.84841485005957,1.3632024018569222],[103.84865774024412,1.3630762984681433],[103.84890368010109,1.3629437885183064],[103.84918541151431,1.3627858747132329],[103.84935645049903,1.3626824839339509],[103.84949748539299,1.3625784503422789],[103.84965186214016,1.362464574454706],[103.8499238616697,1.362263929416187],[103.8513709151445,1.3611029412784226],[103.85194295836557,1.360652909851558],[103.8522672818684,1.360326981650386],[103.85280681816344,1.361553947369624],[103.85290485824751,1.3621244023848194],[103.85292664162446,1.3626070704721711],[103.85289396633623,1.3629690995203694],[103.8527959343199,1.3634079295233912],[103.85264342738985,1.3638357719356933],[103.85185169749658,1.3652776387246464],[103.85139078369856,1.3660921353262587],[103.85128816935577,1.3662713132710644],[103.85047636106462,1.3677036766878654],[103.8498706938968,1.3687748579267935],[103.84972892463013,1.3690259963386755],[103.8494515957823,1.3689534021987482],[103.84929080089351,1.368911046476544],[103.84910290871878,1.3688663242016013],[103.84891308558124,1.3688304683115857],[103.84872185804177,1.368803621692215],[103.84852961338238,1.3687858539767936],[103.84833659603916,1.3687815459040142],[103.8481438600067,1.3687866685243988]]]},"properties":{"OBJECTID":970,"SUBZONE_NO":4,"SUBZONE_N":"TOWNSVILLE","SUBZONE_C":"AMSZ04","CA_IND":"N","PLN_AREA_N":"ANG MO KIO","PLN_AREA_C":"AM","REGION_N":"NORTH-EAST REGION","REGION_C":"NER","INC_CRC":"F5558D84EBC2AAA7","FMEL_UPD_D":"20191223152313","SHAPE.AREA":546393.826227735,"SHAPE.LEN":3313.32284387117,"fill":"#B9E4CC","fill-opacity":0.55,"stroke":"#666666","stroke-width":0.8,"stroke-opacity":1.0}}]}